NAVSTAR 77 (USA 289)    
1 43873U 18109A   23303.51672366  .00000040  00000+0  00000+0 0  9993
2 43873  55.2129 130.1443 0026856 189.7339   2.9361  2.00570755 35802
